IXPE                    
1 49954U 21121A   24230.91668981  .00011677  00000+0  86454-3 0  9998
2 49954   0.2308 295.3922 0009132 118.1574 149.7540 14.99198220  5796
